{"type": "FeatureCollection", "features": [ {"type": "Feature", "properties": {"norad_id": 30546, "name": "FENGYUN 1C DEB", "group": "fengyun-1c-debris", "lat": 28.435042435462773, "lon": 37.677586783424196, "alt_km": 543.2155929706569, "timestamp": "2025-12-21T16:47:55.015363+00:00", "meta": {"OBJECT_NAME": "FENGYUN 1C DEB", "OBJECT_ID": "1999-025AKL", "EPOCH": "2025-12-21T02:15:45.709056", "MEAN_MOTION": 14.87265933, "ECCENTRICITY": 0.00927699, "INCLINATION": 98.9075, "RA_OF_ASC_NODE": 212.1269, "ARG_OF_PERICENTER": 135.8573, "MEAN_ANOMALY": 14.0248, "EPHEMERIS_TYPE": 0, "CLASSIFICATION_TYPE": "U", "NORAD_CAT_ID": 30546, "ELEMENT_SET_NO": 999, "REV_AT_EPOCH": 581, "BSTAR": 0.00046173971, "MEAN_MOTION_DOT": 4.432e-05, "MEAN_MOTION_DDOT": 0}, "tle": {"line1": "1 30546U 99025AKL 25355.09427904  .00004432  00000+0  46174-3 0  9995", "line2": "2 30546  98.9075 212.1269 0092769 135.8573  14.0248 14.87265933  5817"}}, "geometry": {"type": "Point", "coordinates": [37.677586783424196, 28.435042435462773]}}, {"type": "Feature", "properties": {"norad_id": 30547, "name": "FENGYUN 1C DEB", "group": "fengyun-1c-debris", "lat": 68.49670108297046, "lon": 175.57631020651863, "alt_km": 793.3333224791322, "timestamp": "2025-12-21T16:47:55.015376+00:00", "meta": {"OBJECT_NAME": "FENGYUN 1C DEB", "OBJECT_ID": "1999-025AKM", "EPOCH": "2025-12-21T08:56:42.556992", "MEAN_MOTION": 14.37764179, "ECCENTRICITY": 0.0095497, "INCLINATION": 98.9018, "RA_OF_ASC_NODE": 198.6791, "ARG_OF_PERICENTER": 191.8342, "MEAN_ANOMALY": 346.7474, "EPHEMERIS_TYPE": 0, "CLASSIFICATION_TYPE": "U", "NORAD_CAT_ID": 30547, "ELEMENT_SET_NO": 999, "REV_AT_EPOCH": 98846, "BSTAR": 0.00020384, "MEAN_MOTION_DOT": 5.98e-06, "MEAN_MOTION_DDOT": 0}, "tle": {"line1": "1 30547U 99025AKM 25355.37271478  .00000598  00000+0  20384-3 0  9994", "line2": "2 30547  98.9018 198.6791 0095497 191.8342 346.7474 14.37764179988468"}}, "geometry": {"type": "Point", "coordinates": [175.57631020651863, 68.49670108297046]}}, {"type": "Feature", "properties": {"norad_id": 30548, "name": "FENGYUN 1C DEB", "group": "fengyun-1c-debris", "lat": -21.17292179281536, "lon": -102.09764580607894, "alt_km": 763.8726699674971, "timestamp": "2025-12-21T16:47:55.015386+00:00", "meta": {"OBJECT_NAME": "FENGYUN 1C DEB", "OBJECT_ID": "1999-025AKN", "EPOCH": "2025-12-19T11:53:03.591744", "MEAN_MOTION": 14.26940048, "ECCENTRICITY": 0.0068156, "INCLINATION": 99.6826, "RA_OF_ASC_NODE": 251.6731, "ARG_OF_PERICENTER": 316.757, "MEAN_ANOMALY": 221.8405, "EPHEMERIS_TYPE": 0, "CLASSIFICATION_TYPE": "U", "NORAD_CAT_ID": 30548, "ELEMENT_SET_NO": 999, "REV_AT_EPOCH": 14191, "BSTAR": 0.0013661, "MEAN_MOTION_DOT": 3.351e-05, "MEAN_MOTION_DDOT": 0}, "tle": {"line1": "1 30548U 99025AKN 25353.49518046  .00003351  00000+0  13661-2 0  9990", "line2": "2 30548  99.6826 251.6731 0068156 316.7570 221.8405 14.26940048141918"}}, "geometry": {"type": "Point", "coordinates": [-102.09764580607894, -21.17292179281536]}}, {"type": "Feature", "properties": {"norad_id": 30549, "name": "FENGYUN 1C DEB", "group": "fengyun-1c-debris", "lat": -17.50974636396481, "lon": 118.17562519920305, "alt_km": 970.2233180944113, "timestamp": "2025-12-21T16:47:55.015396+00:00", "meta": {"OBJECT_NAME": "FENGYUN 1C DEB", "OBJECT_ID": "1999-025AKP", "EPOCH": "2025-12-20T13:25:00.998112", "MEAN_MOTION": 13.98769507, "ECCENTRICITY": 0.0288384, "INCLINATION": 98.4773, "RA_OF_ASC_NODE": 114.4218, "ARG_OF_PERICENTER": 235.3338, "MEAN_ANOMALY": 122.034, "EPHEMERIS_TYPE": 0, "CLASSIFICATION_TYPE": "U", "NORAD_CAT_ID": 30549, "ELEMENT_SET_NO": 999, "REV_AT_EPOCH": 95403, "BSTAR": 0.0016536, "MEAN_MOTION_DOT": 3.358e-05, "MEAN_MOTION_DDOT": 0}, "tle": {"line1": "1 30549U 99025AKP 25354.55903933  .00003358  00000+0  16536-2 0  9993", "line2": "2 30549  98.4773 114.4218 0288384 235.3338 122.0340 13.98769507954030"}}, "geometry": {"type": "Point", "coordinates": [118.17562519920305, -17.50974636396481]}}, {"type": "Feature", "properties": {"norad_id": 30550, "name": "FENGYUN 1C DEB", "group": "fengyun-1c-debris", "lat": -74.63600834189185, "lon": 35.47084501862154, "alt_km": 800.1884837879434, "timestamp": "2025-12-21T16:47:55.015406+00:00", "meta": {"OBJECT_NAME": "FENGYUN 1C DEB", "OBJECT_ID": "1999-025AKQ", "EPOCH": "2025-12-21T11:16:09.410304", "MEAN_MOTION": 14.02460974, "ECCENTRICITY": 0.0131624, "INCLINATION": 99.0539, "RA_OF_ASC_NODE": 250.7135, "ARG_OF_PERICENTER": 273.3168, "MEAN_ANOMALY": 262.0214, "EPHEMERIS_TYPE": 0, "CLASSIFICATION_TYPE": "U", "NORAD_CAT_ID": 30550, "ELEMENT_SET_NO": 999, "REV_AT_EPOCH": 95517, "BSTAR": 0.0020034, "MEAN_MOTION_DOT": 3.279e-05, "MEAN_MOTION_DDOT": 0}, "tle": {"line1": "1 30550U 99025AKQ 25355.46955336  .00003279  00000+0  20034-2 0  9990", "line2": "2 30550  99.0539 250.7135 0131624 273.3168 262.0214 14.02460974955171"}}, "geometry": {"type": "Point", "coordinates": [35.47084501862154, -74.63600834189185]}}, {"type": "Feature", "properties": {"norad_id": 30552, "name": "FENGYUN 1C DEB", "group": "fengyun-1c-debris", "lat": 23.382719342136326, "lon": -48.27115539476197, "alt_km": 705.4446709184922, "timestamp": "2025-12-21T16:47:55.015416+00:00", "meta": {"OBJECT_NAME": "FENGYUN 1C DEB", "OBJECT_ID": "1999-025AKS", "EPOCH": "2025-12-20T20:16:32.442816", "MEAN_MOTION": 14.54947357, "ECCENTRICITY": 0.0015251, "INCLINATION": 98.8346, "RA_OF_ASC_NODE": 126.9697, "ARG_OF_PERICENTER": 229.7378, "MEAN_ANOMALY": 130.2485, "EPHEMERIS_TYPE": 0, "CLASSIFICATION_TYPE": "U", "NORAD_CAT_ID": 30552, "ELEMENT_SET_NO": 999, "REV_AT_EPOCH": 97770, "BSTAR": 0.0018815, "MEAN_MOTION_DOT": 8.063e-05, "MEAN_MOTION_DDOT": 0}, "tle": {"line1": "1 30552U 99025AKS 25354.84481994  .00008063  00000+0  18815-2 0  9997", "line2": "2 30552  98.8346 126.9697 0015251 229.7378 130.2485 14.54947357977709"}}, "geometry": {"type": "Point", "coordinates": [-48.27115539476197, 23.382719342136326]}}, {"type": "Feature", "properties": {"norad_id": 30553, "name": "FENGYUN 1C DEB", "group": "fengyun-1c-debris", "lat": 57.78478422200154, "lon": 76.90020796304688, "alt_km": 641.5761876924162, "timestamp": "2025-12-21T16:47:55.015426+00:00", "meta": {"OBJECT_NAME": "FENGYUN 1C DEB", "OBJECT_ID": "1999-025AKT", "EPOCH": "2025-12-21T05:06:59.154624", "MEAN_MOTION": 14.72572494, "ECCENTRICITY": 0.00196997, "INCLINATION": 99.1306, "RA_OF_ASC_NODE": 91.1418, "ARG_OF_PERICENTER": 126.5343, "MEAN_ANOMALY": 233.7679, "EPHEMERIS_TYPE": 0, "CLASSIFICATION_TYPE": "U", "NORAD_CAT_ID": 30553, "ELEMENT_SET_NO": 999, "REV_AT_EPOCH": 98598, "BSTAR": 0.0020012072, "MEAN_MOTION_DOT": 0.00012726, "MEAN_MOTION_DDOT": 0}, "tle": {"line1": "1 30553U 99025AKT 25355.21318466  .00012726  00000+0  20012-2 0  9996", "line2": "2 30553  99.1306  91.1418 0019699 126.5343 233.7679 14.72572494985989"}}, "geometry": {"type": "Point", "coordinates": [76.90020796304688, 57.78478422200154]}}, {"type": "Feature", "properties": {"norad_id": 30555, "name": "FENGYUN 1C DEB", "group": "fengyun-1c-debris", "lat": -16.483738416289775, "lon": 51.75982463226304, "alt_km": 831.3992477479205, "timestamp": "2025-12-21T16:47:55.015436+00:00", "meta": {"OBJECT_NAME": "FENGYUN 1C DEB", "OBJECT_ID": "1999-025AKV", "EPOCH": "2025-12-21T01:57:01.104192", "MEAN_MOTION": 14.20848892, "ECCENTRICITY": 0.00430511, "INCLINATION": 98.7567, "RA_OF_ASC_NODE": 48.5328, "ARG_OF_PERICENTER": 247.3074, "MEAN_ANOMALY": 172.8345, "EPHEMERIS_TYPE": 0, "CLASSIFICATION_TYPE": "U", "NORAD_CAT_ID": 30555, "ELEMENT_SET_NO": 999, "REV_AT_EPOCH": 97054, "BSTAR": 0.00096100814, "MEAN_MOTION_DOT": 2.053e-05, "MEAN_MOTION_DDOT": 0}, "tle": {"line1": "1 30555U 99025AKV 25355.08126278  .00002053  00000+0  96101-3 0  9996", "line2": "2 30555  98.7567  48.5328 0043051 247.3074 172.8345 14.20848892970543"}}, "geometry": {"type": "Point", "coordinates": [51.75982463226304, -16.483738416289775]}}, {"type": "Feature", "properties": {"norad_id": 30556, "name": "FENGYUN 1C DEB", "group": "fengyun-1c-debris", "lat": -41.66169027979767, "lon": 160.71188026916036, "alt_km": 846.5005839543992, "timestamp": "2025-12-21T16:47:55.015445+00:00", "meta": {"OBJECT_NAME": "FENGYUN 1C DEB", "OBJECT_ID": "1999-025AKW", "EPOCH": "2025-12-21T11:22:50.055744", "MEAN_MOTION": 14.01372228, "ECCENTRICITY": 0.0068521, "INCLINATION": 98.7809, "RA_OF_ASC_NODE": 348.3994, "ARG_OF_PERICENTER": 212.8898, "MEAN_ANOMALY": 310.8778, "EPHEMERIS_TYPE": 0, "CLASSIFICATION_TYPE": "U", "NORAD_CAT_ID": 30556, "ELEMENT_SET_NO": 999, "REV_AT_EPOCH": 96379, "BSTAR": 0.00012657, "MEAN_MOTION_DOT": 1.52e-06, "MEAN_MOTION_DDOT": 0}, "tle": {"line1": "1 30556U 99025AKW 25355.47419046  .00000152  00000+0  12657-3 0  9990", "line2": "2 30556  98.7809 348.3994 0068521 212.8898 310.8778 14.01372228963790"}}, "geometry": {"type": "Point", "coordinates": [160.71188026916036, -41.66169027979767]}}, {"type": "Feature", "properties": {"norad_id": 30557, "name": "FENGYUN 1C DEB", "group": "fengyun-1c-debris", "lat": -66.86147187329973, "lon": 82.35737292545778, "alt_km": 858.2087485856255, "timestamp": "2025-12-21T16:47:55.015457+00:00", "meta": {"OBJECT_NAME": "FENGYUN 1C DEB", "OBJECT_ID": "1999-025AKX", "EPOCH": "2025-12-20T03:40:45.719616", "MEAN_MOTION": 14.10830894, "ECCENTRICITY": 0.00685516, "INCLINATION": 98.9202, "RA_OF_ASC_NODE": 59.2589, "ARG_OF_PERICENTER": 211.8311, "MEAN_ANOMALY": 147.8708, "EPHEMERIS_TYPE": 0, "CLASSIFICATION_TYPE": "U", "NORAD_CAT_ID": 30557, "ELEMENT_SET_NO": 999, "REV_AT_EPOCH": 96405, "BSTAR": 0.00083897282, "MEAN_MOTION_DOT": 1.492e-05, "MEAN_MOTION_DDOT": 0}, "tle": {"line1": "1 30557U 99025AKX 25354.15330694  .00001492  00000+0  83897-3 0  9998", "line2": "2 30557  98.9202  59.2589 0068551 211.8311 147.8708 14.10830894964059"}}, "geometry": {"type": "Point", "coordinates": [82.35737292545778, -66.86147187329973]}}]}